ONEWEB-0381             
1 49307U 21090AE  26001.26611921  .00000100  00000+0  21363-3 0  9990
2 49307  87.9222 307.7320 0001911  84.7643 275.3709 13.20772066207793
ONEWEB-0382             
1 49308U 21090AF  26001.25347740  .00000072  00000+0  14459-3 0  9991
2 49308  87.9222 307.7301 0002033  80.6000 279.5363 13.20769697207788
ONEWEB-0383             
1 49309U 21090AG  26001.25744989  .00000243  00000+0  62145-3 0  9993
2 49309  87.9012 322.9517 0001914  79.2481 280.8864 13.14501811205669
ONEWEB-0384             
1 49310U 21090AH  26001.24648153  .00000063  00000+0  12413-3 0  9993
2 49310  87.9233 307.7695 0002275  80.0751 280.0639 13.20801043207790
ONEWEB-0385             
1 49311U 21090AJ  26001.24560244  .00000041  00000+0  69763-4 0  9995
2 49311  87.9221 307.7364 0001877  80.4271 279.7074 13.20771623207764
ONEWEB-0386             
1 49312U 21090AK  26001.26296443  .00000075  00000+0  15350-3 0  9994
2 49312  87.9221 307.7173 0002016  78.4702 281.6657 13.20771940207788
ONEWEB-0387             
1 49313U 21090AL  26001.24718118  .00000077  00000+0  15637-3 0  9991
2 49313  87.9213 307.7647 0001772  88.5598 271.5739 13.20772031207780
ONEWEB-0388             
1 49314U 21090AM  26001.30764013 -.00000039  00000+0 -12944-3 0  9992
2 49314  87.9208 338.1793 0001896  83.9280 276.2069 13.19725155204406
ONEWEB-0389             
1 50469U 21132A   26001.13914374 -.00000022  00000+0 -89858-4 0  9991
2 50469  87.9093  39.0809 0002053 103.3277 256.8083 13.17649998196087
ONEWEB-0390             
1 50470U 21132B   26001.14081787 -.00000232  00000+0 -62963-3 0  9997
2 50470  87.9089  39.0819 0001527 100.9684 259.1619 13.17648378196087
ONEWEB-0391             
1 50471U 21132C   26001.14253001  .00000050  00000+0  95974-4 0  9993
2 50471  87.9088  39.0912 0002185 119.2199 240.9151 13.17648969196081
ONEWEB-0392             
1 50472U 21132D   26001.09694851  .00000001  00000+0 -30838-4 0  9995
2 50472  87.9098  39.0542 0002036 105.8922 254.2434 13.17650353196118
ONEWEB-0393             
1 50473U 21132E   26001.14602445  .00000021  00000+0  21175-4 0  9995
2 50473  87.9099  39.0670 0001889 101.3667 258.7677 13.17650200196113
ONEWEB-0394             
1 50474U 21132F   26001.01777851  .00000042  00000+0  72868-4 0  9994
2 50474  87.9173   8.6337 0001885  92.7937 267.3411 13.18687853199567
ONEWEB-0395             
1 50475U 21132G   26001.15340941 -.00000123  00000+0 -38223-3 0  9994
2 50475  87.8829  54.3336 0001677 107.7712 252.3599 13.11414946193827
ONEWEB-0396             
1 50476U 21132H   26001.08706942  .00000031  00000+0  46266-4 0  9997
2 50476  87.9172   8.6319 0001816  92.0642 268.0698 13.18687070199610
ONEWEB-0397             
1 50477U 21132J   26001.02602634  .00000068  00000+0  14052-3 0  9992
2 50477  87.9172   8.6444 0001973  89.6554 270.4804 13.18684078199585
