[{"OBJECT_NAME":"ONEWEB-0381","OBJECT_ID":"2021-090AE","EPOCH":"2026-01-01T06:23:12.699744","MEAN_MOTION":13.20772066,"ECCENTRICITY":0.00019115,"INCLINATION":87.9222,"RA_OF_ASC_NODE":307.732,"ARG_OF_PERICENTER":84.7643,"MEAN_ANOMALY":275.3709,"EPHEMERIS_TYPE":0,"CLASSIFICATION_TYPE":"U","NORAD_CAT_ID":49307,"ELEMENT_SET_NO":999,"REV_AT_EPOCH":20779,"BSTAR":0.0002136293,"MEAN_MOTION_DOT":1.0e-6,"MEAN_MOTION_DDOT":0},{"OBJECT_NAME":"ONEWEB-0382","OBJECT_ID":"2021-090AF","EPOCH":"2026-01-01T06:05:00.447360","MEAN_MOTION":13.20769697,"ECCENTRICITY":0.00020334,"INCLINATION":87.9222,"RA_OF_ASC_NODE":307.7301,"ARG_OF_PERICENTER":80.6,"MEAN_ANOMALY":279.5363,"EPHEMERIS_TYPE":0,"CLASSIFICATION_TYPE":"U","NORAD_CAT_ID":49308,"ELEMENT_SET_NO":999,"REV_AT_EPOCH":20778,"BSTAR":0.00014458786,"MEAN_MOTION_DOT":7.2e-7,"MEAN_MOTION_DDOT":0},{"OBJECT_NAME":"ONEWEB-0383","OBJECT_ID":"2021-090AG","EPOCH":"2026-01-01T06:10:43.670496","MEAN_MOTION":13.14501811,"ECCENTRICITY":0.00019142,"INCLINATION":87.9012,"RA_OF_ASC_NODE":322.9517,"ARG_OF_PERICENTER":79.2481,"MEAN_ANOMALY":280.8864,"EPHEMERIS_TYPE":0,"CLASSIFICATION_TYPE":"U","NORAD_CAT_ID":49309,"ELEMENT_SET_NO":999,"REV_AT_EPOCH":20566,"BSTAR":0.00062144634,"MEAN_MOTION_DOT":2.43e-6,"MEAN_MOTION_DDOT":0},{"OBJECT_NAME":"ONEWEB-0384","OBJECT_ID":"2021-090AH","EPOCH":"2026-01-01T05:54:56.004192","MEAN_MOTION":13.20801043,"ECCENTRICITY":0.0002275,"INCLINATION":87.9233,"RA_OF_ASC_NODE":307.7695,"ARG_OF_PERICENTER":80.0751,"MEAN_ANOMALY":280.0639,"EPHEMERIS_TYPE":0,"CLASSIFICATION_TYPE":"U","NORAD_CAT_ID":49310,"ELEMENT_SET_NO":999,"REV_AT_EPOCH":20779,"BSTAR":0.00012412772,"MEAN_MOTION_DOT":6.3e-7,"MEAN_MOTION_DDOT":0},{"OBJECT_NAME":"ONEWEB-0385","OBJECT_ID":"2021-090AJ","EPOCH":"2026-01-01T05:53:40.050816","MEAN_MOTION":13.20771623,"ECCENTRICITY":0.00018773,"INCLINATION":87.9221,"RA_OF_ASC_NODE":307.7364,"ARG_OF_PERICENTER":80.4271,"MEAN_ANOMALY":279.7074,"EPHEMERIS_TYPE":0,"CLASSIFICATION_TYPE":"U","NORAD_CAT_ID":49311,"ELEMENT_SET_NO":999,"REV_AT_EPOCH":20776,"BSTAR":6.9762715e-5,"MEAN_MOTION_DOT":4.1e-7,"MEAN_MOTION_DDOT":0},{"OBJECT_NAME":"ONEWEB-0386","OBJECT_ID":"2021-090AK","EPOCH":"2026-01-01T06:18:40.126752","MEAN_MOTION":13.2077194,"ECCENTRICITY":0.0002016,"INCLINATION":87.9221,"RA_OF_ASC_NODE":307.7173,"ARG_OF_PERICENTER":78.4702,"MEAN_ANOMALY":281.6657,"EPHEMERIS_TYPE":0,"CLASSIFICATION_TYPE":"U","NORAD_CAT_ID":49312,"ELEMENT_SET_NO":999,"REV_AT_EPOCH":20778,"BSTAR":0.00015349747,"MEAN_MOTION_DOT":7.5e-7,"MEAN_MOTION_DDOT":0},{"OBJECT_NAME":"ONEWEB-0387","OBJECT_ID":"2021-090AL","EPOCH":"2026-01-01T05:55:56.453952","MEAN_MOTION":13.20772031,"ECCENTRICITY":0.00017726,"INCLINATION":87.9213,"RA_OF_ASC_NODE":307.7647,"ARG_OF_PERICENTER":88.5598,"MEAN_ANOMALY":271.5739,"EPHEMERIS_TYPE":0,"CLASSIFICATION_TYPE":"U","NORAD_CAT_ID":49313,"ELEMENT_SET_NO":999,"REV_AT_EPOCH":20778,"BSTAR":0.00015637195,"MEAN_MOTION_DOT":7.7e-7,"MEAN_MOTION_DDOT":0},{"OBJECT_NAME":"ONEWEB-0388","OBJECT_ID":"2021-090AM","EPOCH":"2026-01-01T07:23:00.107232","MEAN_MOTION":13.19725155,"ECCENTRICITY":0.0001896,"INCLINATION":87.9208,"RA_OF_ASC_NODE":338.1793,"ARG_OF_PERICENTER":83.928,"MEAN_ANOMALY":276.2069,"EPHEMERIS_TYPE":0,"CLASSIFICATION_TYPE":"U","NORAD_CAT_ID":49314,"ELEMENT_SET_NO":999,"REV_AT_EPOCH":20440,"BSTAR":-0.00012944209,"MEAN_MOTION_DOT":-3.9e-7,"MEAN_MOTION_DDOT":0},{"OBJECT_NAME":"ONEWEB-0389","OBJECT_ID":"2021-132A","EPOCH":"2026-01-01T03:20:22.019136","MEAN_MOTION":13.17649998,"ECCENTRICITY":0.00020533,"INCLINATION":87.9093,"RA_OF_ASC_NODE":39.0809,"ARG_OF_PERICENTER":103.3277,"MEAN_ANOMALY":256.8083,"EPHEMERIS_TYPE":0,"CLASSIFICATION_TYPE":"U","NORAD_CAT_ID":50469,"ELEMENT_SET_NO":999,"REV_AT_EPOCH":19608,"BSTAR":-8.9858085e-5,"MEAN_MOTION_DOT":-2.2e-7,"MEAN_MOTION_DDOT":0},{"OBJECT_NAME":"ONEWEB-0390","OBJECT_ID":"2021-132B","EPOCH":"2026-01-01T03:22:46.663968","MEAN_MOTION":13.17648378,"ECCENTRICITY":0.00015279,"INCLINATION":87.9089,"RA_OF_ASC_NODE":39.0819,"ARG_OF_PERICENTER":100.9684,"MEAN_ANOMALY":259.1619,"EPHEMERIS_TYPE":0,"CLASSIFICATION_TYPE":"U","NORAD_CAT_ID":50470,"ELEMENT_SET_NO":999,"REV_AT_EPOCH":19608,"BSTAR":-0.00062963244,"MEAN_MOTION_DOT":-2.32e-6,"MEAN_MOTION_DDOT":0},{"OBJECT_NAME":"ONEWEB-0391","OBJECT_ID":"2021-132C","EPOCH":"2026-01-01T03:25:14.592864","MEAN_MOTION":13.17648969,"ECCENTRICITY":0.00021852,"INCLINATION":87.9088,"RA_OF_ASC_NODE":39.0912,"ARG_OF_PERICENTER":119.2199,"MEAN_ANOMALY":240.9151,"EPHEMERIS_TYPE":0,"CLASSIFICATION_TYPE":"U","NORAD_CAT_ID":50471,"ELEMENT_SET_NO":999,"REV_AT_EPOCH":19608,"BSTAR":9.5973865e-5,"MEAN_MOTION_DOT":5.0e-7,"MEAN_MOTION_DDOT":0},{"OBJECT_NAME":"ONEWEB-0392","OBJECT_ID":"2021-132D","EPOCH":"2026-01-01T02:19:36.351264","MEAN_MOTION":13.17650353,"ECCENTRICITY":0.00020361,"INCLINATION":87.9098,"RA_OF_ASC_NODE":39.0542,"ARG_OF_PERICENTER":105.8922,"MEAN_ANOMALY":254.2434,"EPHEMERIS_TYPE":0,"CLASSIFICATION_TYPE":"U","NORAD_CAT_ID":50472,"ELEMENT_SET_NO":999,"REV_AT_EPOCH":19611,"BSTAR":-3.0837986e-5,"MEAN_MOTION_DOT":1.0e-8,"MEAN_MOTION_DDOT":0},{"OBJECT_NAME":"ONEWEB-0393","OBJECT_ID":"2021-132E","EPOCH":"2026-01-01T03:30:16.512480","MEAN_MOTION":13.176502,"ECCENTRICITY":0.00018895,"INCLINATION":87.9099,"RA_OF_ASC_NODE":39.067,"ARG_OF_PERICENTER":101.3667,"MEAN_ANOMALY":258.7677,"EPHEMERIS_TYPE":0,"CLASSIFICATION_TYPE":"U","NORAD_CAT_ID":50473,"ELEMENT_SET_NO":999,"REV_AT_EPOCH":19611,"BSTAR":2.1174765e-5,"MEAN_MOTION_DOT":2.1e-7,"MEAN_MOTION_DDOT":0},{"OBJECT_NAME":"ONEWEB-0394","OBJECT_ID":"2021-132F","EPOCH":"2026-01-01T00:25:36.063264","MEAN_MOTION":13.18687853,"ECCENTRICITY":0.00018859,"INCLINATION":87.9173,"RA_OF_ASC_NODE":8.6337,"ARG_OF_PERICENTER":92.7937,"MEAN_ANOMALY":267.3411,"EPHEMERIS_TYPE":0,"CLASSIFICATION_TYPE":"U","NORAD_CAT_ID":50474,"ELEMENT_SET_NO":999,"REV_AT_EPOCH":19956,"BSTAR":7.2868008e-5,"MEAN_MOTION_DOT":4.2e-7,"MEAN_MOTION_DDOT":0},{"OBJECT_NAME":"ONEWEB-0395","OBJECT_ID":"2021-132G","EPOCH":"2026-01-01T03:40:54.573024","MEAN_MOTION":13.11414946,"ECCENTRICITY":0.00016771,"INCLINATION":87.8829,"RA_OF_ASC_NODE":54.3336,"ARG_OF_PERICENTER":107.7712,"MEAN_ANOMALY":252.3599,"EPHEMERIS_TYPE":0,"CLASSIFICATION_TYPE":"U","NORAD_CAT_ID":50475,"ELEMENT_SET_NO":999,"REV_AT_EPOCH":19382,"BSTAR":-0.00038223306,"MEAN_MOTION_DOT":-1.23e-6,"MEAN_MOTION_DDOT":0},{"OBJECT_NAME":"ONEWEB-0396","OBJECT_ID":"2021-132H","EPOCH":"2026-01-01T02:05:22.797888","MEAN_MOTION":13.1868707,"ECCENTRICITY":0.00018168,"INCLINATION":87.9172,"RA_OF_ASC_NODE":8.6319,"ARG_OF_PERICENTER":92.0642,"MEAN_ANOMALY":268.0698,"EPHEMERIS_TYPE":0,"CLASSIFICATION_TYPE":"U","NORAD_CAT_ID":50476,"ELEMENT_SET_NO":999,"REV_AT_EPOCH":19961,"BSTAR":4.6266242e-5,"MEAN_MOTION_DOT":3.1e-7,"MEAN_MOTION_DDOT":0},{"OBJECT_NAME":"ONEWEB-0397","OBJECT_ID":"2021-132J","EPOCH":"2026-01-01T00:37:28.675776","MEAN_MOTION":13.18684078,"ECCENTRICITY":0.00019739,"INCLINATION":87.9172,"RA_OF_ASC_NODE":8.6444,"ARG_OF_PERICENTER":89.6554,"MEAN_ANOMALY":270.4804,"EPHEMERIS_TYPE":0,"CLASSIFICATION_TYPE":"U","NORAD_CAT_ID":50477,"ELEMENT_SET_NO":999,"REV_AT_EPOCH":19958,"BSTAR":0.00014052313,"MEAN_MOTION_DOT":6.8e-7,"MEAN_MOTION_DDOT":0}]
